{
  "norad_id": 66350,
  "name": "STARLINK-35829",
  "history": [
    {
      "epoch": "2026-03-28T20:54:24.061248Z",
      "apogee_km": 476.0804220365544,
      "perigee_km": 474.2514125539874,
      "latitude_deg": 6.0359225521105414e-05,
      "longitude_deg": 3.3844468673542747,
      "height_km": 476.1292408003184,
      "semi_major_axis_km": 6853.302917295271,
      "eccentricity": 0.00013344,
      "inclination_deg": 53.159,
      "raan_deg": 143.27,
      "arg_perigee_deg": 94.1037,
      "mean_anomaly_deg": 266.0117,
      "mean_motion_rev_day": 15.30216462
    }
  ]
}